ONEWEB-0332             
1 49279U 21090A   24056.82311254 -.00000090  00000+0 -27628-3 0  9994
2 49279  87.8911  97.3867 0002199  89.0036 271.1346 13.14501909116919
ONEWEB-0347             
1 49280U 21090B   24057.08371978  .00000118  00000+0  25758-3 0  9995
2 49280  87.9126  82.0483 0002314  84.2383 275.9014 13.20771163119887
ONEWEB-0349             
1 49281U 21090C   24057.11528473  .00000000  00000+0 -31065-4 0  9994
2 49281  87.9128  82.0397 0001680 100.7264 259.4059 13.20770979119960
ONEWEB-0353             
1 49282U 21090D   24056.81517438 -.00000034  00000+0 -12698-3 0  9998
2 49282  87.8914  97.3726 0002166  89.6504 270.4874 13.14501076116913
ONEWEB-0356             
1 49283U 21090E   24057.11370612 -.00000005  00000+0 -43153-4 0  9993
2 49283  87.9127  82.0357 0002658 109.3204 250.8217 13.20770777119969
ONEWEB-0358             
1 49284U 21090F   24057.14369598 -.00000036  00000+0 -12119-3 0  9999
2 49284  87.9128  82.0153 0001902 103.7195 256.4150 13.20771262120693
ONEWEB-0359             
1 49285U 21090G   24057.14053202 -.00000060  00000+0 -18068-3 0  9998
2 49285  87.9126  82.0361 0001440  99.6334 260.4962 13.20775100120666
ONEWEB-0360             
1 49286U 21090H   24056.82804317  .00000035  00000+0  54524-4 0  9992
2 49286  87.9126  82.1030 0001776  92.8105 267.3232 13.20771385118657
